[{"OBJECT_NAME":"STARLINK-4623","OBJECT_ID":"2023-010AY","EPOCH":"2026-03-09T22:07:01.257312","MEAN_MOTION":14.983299,"ECCENTRICITY":0.00028457,"INCLINATION":70.0018,"RA_OF_ASC_NODE":23.8829,"ARG_OF_PERICENTER":266.8009,"MEAN_ANOMALY":93.2825,"EPHEMERIS_TYPE":0,"CLASSIFICATION_TYPE":"U","NORAD_CAT_ID":55315,"ELEMENT_SET_NO":999,"REV_AT_EPOCH":17329,"BSTAR":6.502102e-6,"MEAN_MOTION_DOT":-1.5e-7,"MEAN_MOTION_DDOT":0},{"OBJECT_NAME":"BRO-15","OBJECT_ID":"2024-149CP","EPOCH":"2026-03-09T18:52:33.918816","MEAN_MOTION":14.95892184,"ECCENTRICITY":0.00093198,"INCLINATION":97.6864,"RA_OF_ASC_NODE":146.0377,"ARG_OF_PERICENTER":65.4416,"MEAN_ANOMALY":294.7775,"EPHEMERIS_TYPE":0,"CLASSIFICATION_TYPE":"U","NORAD_CAT_ID":60553,"ELEMENT_SET_NO":999,"REV_AT_EPOCH":8514,"BSTAR":7.8021491e-5,"MEAN_MOTION_DOT":8.16e-6,"MEAN_MOTION_DDOT":0}]
